KUIPER-00517            
1 69600U 26140J   26189.62554126  .00013405  00000+0  35411-3 0  9990
2 69600  51.8773 294.9031 0010328 266.2816  93.6990 15.38706366  4530
KUIPER-00520            
1 69601U 26140K   26189.64490490  .00018391  00000+0  50059-3 0  9990
2 69601  51.8812 295.0381 0006049 333.4138  26.6538 15.37546521  4532
KUIPER-00522            
1 69602U 26140L   26189.62158866  .00013317  00000+0  35344-3 0  9990
2 69602  51.8774 294.8794 0013077 240.2959 119.6727 15.38536409  4538
KUIPER-00528            
1 69603U 26140M   26189.64695416  .00012677  00000+0  35044-3 0  9995
2 69603  51.8782 295.0431 0005445 338.5559  21.5198 15.37384857  4536
KUIPER-00532            
1 69604U 26140N   26189.65461264  .00010464  00000+0  29801-3 0  9995
2 69604  51.8780 295.0911 0005647  10.7953 349.3153 15.36657921  4535
KUIPER-00533            
1 69605U 26140P   26189.63442559  .00030419  00000+0  80275-3 0  9994
2 69605  51.8788 294.9634 0007553 303.4427  56.5838 15.38186856  4533
KUIPER-00534            
1 69606U 26140Q   26189.61676621  .00013508  00000+0  35741-3 0  9990
2 69606  51.8833 294.8553 0014046 247.7802 112.1696 15.38606052  4532
KUIPER-00537            
1 69607U 26140R   26189.60354019  .00014383  00000+0  43528-3 0  9998
2 69607  51.8812 295.5041 0010878  33.3157 326.8511 15.34382028  4520
KUIPER-00538            
1 69608U 26140S   26189.64278326  .00019358  00000+0  52483-3 0  9996
2 69608  51.8793 295.0210 0006173 318.4947  41.5570 15.37631514  4536
KUIPER-00540            
1 69609U 26140T   26189.65144668  .00016588  00000+0  46267-3 0  9994
2 69609  51.8824 295.0822 0006040   5.2291 354.8758 15.36865303  4539
KUIPER-00541            
1 69610U 26140U   26189.63467520  .00030502  00000+0  80131-3 0  9999
2 69610  51.8801 294.9725 0006615 299.1415  60.8910 15.38330274  4536
KUIPER-00542            
1 69611U 26140V   26189.63299761  .00020744  00000+0  54926-3 0  9990
2 69611  51.8801 294.9556 0008184 281.6121  78.3947 15.38303337  4536
KUIPER-00543            
1 69612U 26140W   26189.65546299  .00014209  00000+0  39956-3 0  9999
2 69612  51.8751 295.0926 0007705  13.6753 346.4441 15.36730225  4532
KUIPER-00544            
1 69613U 26140X   26189.63693452  .00033260  00000+0  87927-3 0  9991
2 69613  51.8779 294.9780 0006521 295.9264  64.1051 15.38093127  4532
KUIPER-00546            
1 69614U 26140Y   26189.61777289  .00020357  00000+0  52935-3 0  9995
2 69614  51.8794 294.8574 0014296 240.6852 119.2707 15.38806918  4538
KUIPER-00547            
1 69615U 26140Z   26189.62998235  .00018649  00000+0  50265-3 0  9998
2 69615  51.8872 294.9455 0012213 269.3803  90.5785 15.37789197  4531
