{"fetched_at":"2026-07-09T18:16:40.685Z","source":"https://celestrak.org/NORAD/elements/gp.php?GROUP=kuiper&FORMAT=JSON","constellation":"kuiper","records":[{"OBJECT_NAME":"KUIPER-00517","OBJECT_ID":"2026-140J","EPOCH":"2026-07-08T15:00:46.764864","CLASSIFICATION_TYPE":"U","MEAN_MOTION":15.38706366,"ECCENTRICITY":0.00103286,"INCLINATION":51.8773,"RA_OF_ASC_NODE":294.9031,"ARG_OF_PERICENTER":266.2816,"MEAN_ANOMALY":93.699,"EPHEMERIS_TYPE":0,"NORAD_CAT_ID":69600,"ELEMENT_SET_NO":999,"REV_AT_EPOCH":453,"BSTAR":0.00035411294,"MEAN_MOTION_DOT":0.00013405,"MEAN_MOTION_DDOT":0},{"OBJECT_NAME":"KUIPER-00520","OBJECT_ID":"2026-140K","EPOCH":"2026-07-08T15:28:39.783360","CLASSIFICATION_TYPE":"U","MEAN_MOTION":15.37546521,"ECCENTRICITY":0.00060492,"INCLINATION":51.8812,"RA_OF_ASC_NODE":295.0381,"ARG_OF_PERICENTER":333.4138,"MEAN_ANOMALY":26.6538,"EPHEMERIS_TYPE":0,"NORAD_CAT_ID":69601,"ELEMENT_SET_NO":999,"REV_AT_EPOCH":453,"BSTAR":0.00050058909,"MEAN_MOTION_DOT":0.00018391,"MEAN_MOTION_DDOT":0},{"OBJECT_NAME":"KUIPER-00522","OBJECT_ID":"2026-140L","EPOCH":"2026-07-08T14:55:05.260224","CLASSIFICATION_TYPE":"U","MEAN_MOTION":15.38536409,"ECCENTRICITY":0.00130778,"INCLINATION":51.8774,"RA_OF_ASC_NODE":294.8794,"ARG_OF_PERICENTER":240.2959,"MEAN_ANOMALY":119.6727,"EPHEMERIS_TYPE":0,"NORAD_CAT_ID":69602,"ELEMENT_SET_NO":999,"REV_AT_EPOCH":453,"BSTAR":0.00035344439,"MEAN_MOTION_DOT":0.00013317,"MEAN_MOTION_DDOT":0},{"OBJECT_NAME":"KUIPER-00528","OBJECT_ID":"2026-140M","EPOCH":"2026-07-08T15:31:36.839424","CLASSIFICATION_TYPE":"U","MEAN_MOTION":15.37384857,"ECCENTRICITY":0.00054455,"INCLINATION":51.8782,"RA_OF_ASC_NODE":295.0431,"ARG_OF_PERICENTER":338.5559,"MEAN_ANOMALY":21.5198,"EPHEMERIS_TYPE":0,"NORAD_CAT_ID":69603,"ELEMENT_SET_NO":999,"REV_AT_EPOCH":453,"BSTAR":0.00035043988,"MEAN_MOTION_DOT":0.00012677,"MEAN_MOTION_DDOT":0},{"OBJECT_NAME":"KUIPER-00532","OBJECT_ID":"2026-140N","EPOCH":"2026-07-08T15:42:38.532096","CLASSIFICATION_TYPE":"U","MEAN_MOTION":15.36657921,"ECCENTRICITY":0.00056473,"INCLINATION":51.878,"RA_OF_ASC_NODE":295.0911,"ARG_OF_PERICENTER":10.7953,"MEAN_ANOMALY":349.3153,"EPHEMERIS_TYPE":0,"NORAD_CAT_ID":69604,"ELEMENT_SET_NO":999,"REV_AT_EPOCH":453,"BSTAR":0.0002980055,"MEAN_MOTION_DOT":0.00010464,"MEAN_MOTION_DDOT":0},{"OBJECT_NAME":"KUIPER-00533","OBJECT_ID":"2026-140P","EPOCH":"2026-07-08T15:13:34.370976","CLASSIFICATION_TYPE":"U","MEAN_MOTION":15.38186856,"ECCENTRICITY":0.00075531,"INCLINATION":51.8788,"RA_OF_ASC_NODE":294.9634,"ARG_OF_PERICENTER":303.4427,"MEAN_ANOMALY":56.5838,"EPHEMERIS_TYPE":0,"NORAD_CAT_ID":69605,"ELEMENT_SET_NO":999,"REV_AT_EPOCH":453,"BSTAR":0.00080275203,"MEAN_MOTION_DOT":0.00030419,"MEAN_MOTION_DDOT":0},{"OBJECT_NAME":"KUIPER-00534","OBJECT_ID":"2026-140Q","EPOCH":"2026-07-08T14:48:08.600544","CLASSIFICATION_TYPE":"U","MEAN_MOTION":15.38606052,"ECCENTRICITY":0.00140466,"INCLINATION":51.8833,"RA_OF_ASC_NODE":294.8553,"ARG_OF_PERICENTER":247.7802,"MEAN_ANOMALY":112.1696,"EPHEMERIS_TYPE":0,"NORAD_CAT_ID":69606,"ELEMENT_SET_NO":999,"REV_AT_EPOCH":453,"BSTAR":0.00035741277,"MEAN_MOTION_DOT":0.00013508,"MEAN_MOTION_DDOT":0},{"OBJECT_NAME":"KUIPER-00537","OBJECT_ID":"2026-140R","EPOCH":"2026-07-08T14:29:05.872416","CLASSIFICATION_TYPE":"U","MEAN_MOTION":15.34382028,"ECCENTRICITY":0.0010878,"INCLINATION":51.8812,"RA_OF_ASC_NODE":295.5041,"ARG_OF_PERICENTER":33.3157,"MEAN_ANOMALY":326.8511,"EPHEMERIS_TYPE":0,"NORAD_CAT_ID":69607,"ELEMENT_SET_NO":999,"REV_AT_EPOCH":452,"BSTAR":0.0004352793,"MEAN_MOTION_DOT":0.00014383,"MEAN_MOTION_DDOT":0},{"OBJECT_NAME":"KUIPER-00538","OBJECT_ID":"2026-140S","EPOCH":"2026-07-08T15:25:36.473664","CLASSIFICATION_TYPE":"U","MEAN_MOTION":15.37631514,"ECCENTRICITY":0.00061733,"INCLINATION":51.8793,"RA_OF_ASC_NODE":295.021,"ARG_OF_PERICENTER":318.4947,"MEAN_ANOMALY":41.557,"EPHEMERIS_TYPE":0,"NORAD_CAT_ID":69608,"ELEMENT_SET_NO":999,"REV_AT_EPOCH":453,"BSTAR":0.0005248293,"MEAN_MOTION_DOT":0.00019358,"MEAN_MOTION_DDOT":0},{"OBJECT_NAME":"KUIPER-00540","OBJECT_ID":"2026-140T","EPOCH":"2026-07-08T15:38:04.993152","CLASSIFICATION_TYPE":"U","MEAN_MOTION":15.36865303,"ECCENTRICITY":0.00060405,"INCLINATION":51.8824,"RA_OF_ASC_NODE":295.0822,"ARG_OF_PERICENTER":5.2291,"MEAN_ANOMALY":354.8758,"EPHEMERIS_TYPE":0,"NORAD_CAT_ID":69609,"ELEMENT_SET_NO":999,"REV_AT_EPOCH":453,"BSTAR":0.00046266644,"MEAN_MOTION_DOT":0.00016588,"MEAN_MOTION_DDOT":0},{"OBJECT_NAME":"KUIPER-00541","OBJECT_ID":"2026-140U","EPOCH":"2026-07-08T15:13:55.937280","CLASSIFICATION_TYPE":"U","MEAN_MOTION":15.38330274,"ECCENTRICITY":0.00066157,"INCLINATION":51.8801,"RA_OF_ASC_NODE":294.9725,"ARG_OF_PERICENTER":299.1415,"MEAN_ANOMALY":60.891,"EPHEMERIS_TYPE":0,"NORAD_CAT_ID":69610,"ELEMENT_SET_NO":999,"REV_AT_EPOCH":453,"BSTAR":0.00080131168,"MEAN_MOTION_DOT":0.00030502,"MEAN_MOTION_DDOT":0},{"OBJECT_NAME":"KUIPER-00542","OBJECT_ID":"2026-140V","EPOCH":"2026-07-08T15:11:30.993504","CLASSIFICATION_TYPE":"U","MEAN_MOTION":15.38303337,"ECCENTRICITY":0.00081847,"INCLINATION":51.8801,"RA_OF_ASC_NODE":294.9556,"ARG_OF_PERICENTER":281.6121,"MEAN_ANOMALY":78.3947,"EPHEMERIS_TYPE":0,"NORAD_CAT_ID":69611,"ELEMENT_SET_NO":999,"REV_AT_EPOCH":453,"BSTAR":0.00054926047,"MEAN_MOTION_DOT":0.00020744,"MEAN_MOTION_DDOT":0},{"OBJECT_NAME":"KUIPER-00543","OBJECT_ID":"2026-140W","EPOCH":"2026-07-08T15:43:52.002336","CLASSIFICATION_TYPE":"U","MEAN_MOTION":15.36730225,"ECCENTRICITY":0.00077053,"INCLINATION":51.8751,"RA_OF_ASC_NODE":295.0926,"ARG_OF_PERICENTER":13.6753,"MEAN_ANOMALY":346.4441,"EPHEMERIS_TYPE":0,"NORAD_CAT_ID":69612,"ELEMENT_SET_NO":999,"REV_AT_EPOCH":453,"BSTAR":0.00039956148,"MEAN_MOTION_DOT":0.00014209,"MEAN_MOTION_DDOT":0},{"OBJECT_NAME":"KUIPER-00544","OBJECT_ID":"2026-140X","EPOCH":"2026-07-08T15:17:11.142528","CLASSIFICATION_TYPE":"U","MEAN_MOTION":15.38093127,"ECCENTRICITY":0.00065219,"INCLINATION":51.8779,"RA_OF_ASC_NODE":294.978,"ARG_OF_PERICENTER":295.9264,"MEAN_ANOMALY":64.1051,"EPHEMERIS_TYPE":0,"NORAD_CAT_ID":69613,"ELEMENT_SET_NO":999,"REV_AT_EPOCH":453,"BSTAR":0.0008792692,"MEAN_MOTION_DOT":0.0003326,"MEAN_MOTION_DDOT":0},{"OBJECT_NAME":"KUIPER-00546","OBJECT_ID":"2026-140Y","EPOCH":"2026-07-08T14:49:35.577696","CLASSIFICATION_TYPE":"U","MEAN_MOTION":15.38806918,"ECCENTRICITY":0.00142963,"INCLINATION":51.8794,"RA_OF_ASC_NODE":294.8574,"ARG_OF_PERICENTER":240.6852,"MEAN_ANOMALY":119.2707,"EPHEMERIS_TYPE":0,"NORAD_CAT_ID":69614,"ELEMENT_SET_NO":999,"REV_AT_EPOCH":453,"BSTAR":0.0005293519,"MEAN_MOTION_DOT":0.00020357,"MEAN_MOTION_DDOT":0},{"OBJECT_NAME":"KUIPER-00547","OBJECT_ID":"2026-140Z","EPOCH":"2026-07-08T15:07:10.475040","CLASSIFICATION_TYPE":"U","MEAN_MOTION":15.37789197,"ECCENTRICITY":0.00122134,"INCLINATION":51.8872,"RA_OF_ASC_NODE":294.9455,"ARG_OF_PERICENTER":269.3803,"MEAN_ANOMALY":90.5785,"EPHEMERIS_TYPE":0,"NORAD_CAT_ID":69615,"ELEMENT_SET_NO":999,"REV_AT_EPOCH":453,"BSTAR":0.00050265038,"MEAN_MOTION_DOT":0.00018649,"MEAN_MOTION_DDOT":0}]}
